OBJECT_NAME,OBJECT_ID,EPOCH,MEAN_MOTION,ECCENTRICITY,INCLINATION,RA_OF_ASC_NODE,ARG_OF_PERICENTER,MEAN_ANOMALY,EPHEMERIS_TYPE,CLASSIFICATION_TYPE,NORAD_CAT_ID,ELEMENT_SET_NO,REV_AT_EPOCH,BSTAR,MEAN_MOTION_DOT,MEAN_MOTION_DDOT
SAUDISAT 2,2004-025F,2026-05-09T11:51:23.099040,14.56659974,.0025773,98.5511,128.4776,57.2478,303.1198,0,U,28371,999,16011,.57836E-4,.21E-5,0
COSMOS 2407,2004-028A,2026-05-09T11:24:38.810880,13.76331363,.0039354,82.9577,103.5049,2.8730,117.8566,0,U,28380,999,9455,.57212E-4,.71E-6,0
COSMOS 2414,2005-002A,2026-05-09T07:39:48.598272,13.87922439,.0041597,82.9493,73.0435,80.4599,280.1261,0,U,28521,999,7842,.61661E-4,.9E-6,0
INMARSAT 4-F1,2005-009A,2026-05-09T07:24:51.463008,1.00272059,.0002975,5.1164,42.6777,8.0519,105.7481,0,U,28628,999,7728,0,.42E-6,0
SJ-7,2005-024A,2026-05-09T08:19:55.951104,15.20955618,.0016622,97.7319,158.4198,161.7756,198.4078,0,U,28737,999,14212,.28562E-3,.6274E-4,0
CUBESAT XI-V,2005-043F,2026-05-09T09:35:55.815648,14.72529384,.0013359,98.2943,284.2197,333.2629,26.7887,0,U,28895,999,9604,.17481E-3,.1059E-4,0
HINODE (SOLAR-B),2006-041A,2026-05-09T11:39:27.173952,14.68566786,.0018637,98.0568,146.2076,54.1377,306.1556,0,U,29479,999,4919,.98075E-4,.522E-5,0
SHIJIAN-6 02B (SJ-6 02B),2006-046B,2026-05-09T13:20:58.902720,15.01265904,.0011271,97.7152,158.8553,187.5232,172.5825,0,U,29506,999,6494,.13285E-3,.1649E-4,0
DMSP 5D-3 F17 (USA 191),2006-050A,2026-05-09T11:46:17.732064,14.14986207,.0010419,98.7389,136.8515,160.0335,200.1248,0,U,29522,999,695,.5499E-4,.63E-6,0
LAPAN-TUBSAT,2007-001A,2026-05-09T12:49:37.413984,14.85910507,.0011282,98.1348,127.8898,317.2482,42.7854,0,U,29709,999,4541,.44482E-4,.33E-5,0
HAIYANG-1B,2007-010A,2026-05-09T11:29:31.784640,14.31017307,.0012686,98.3482,112.8291,320.7331,39.2932,0,U,31113,999,99509,.43241E-4,.72E-6,0
COSMO-SKYMED 2,2007-059A,2026-05-09T11:27:37.560384,14.82153937,.0001463,97.8887,313.6370,89.5864,270.5517,0,U,32376,999,99626,.48225E-4,.332E-5,0
CARTOSAT-2A,2008-021A,2026-05-09T13:21:18.950112,14.79185426,.0010491,97.7660,179.5790,233.4058,126.6189,0,U,32783,999,97309,.73918E-4,.499E-5,0
CUTE-1.7+APD II (CO-65),2008-021C,2026-05-09T11:07:33.858048,15.09087619,.0009832,97.8266,110.0941,150.1468,210.0322,0,U,32785,999,97935,.22557E-3,.3511E-4,0
SEEDS II (CO-66),2008-021J,2026-05-09T12:50:15.372960,15.31438560,.0005092,97.7532,125.6314,91.1474,269.0349,0,U,32791,999,98137,.43294E-3,.13075E-3,0
YUBILEINY (RS30),2008-025A,2026-05-09T11:15:20.762784,12.43178136,.0020429,82.5069,19.5238,37.7694,322.4816,0,U,32953,999,81488,.29696E-3,.51E-6,0
FENGYUN 3A,2008-026A,2026-05-09T10:07:58.277856,14.19562918,.0007704,98.6867,70.9850,236.0884,123.9560,0,U,32958,999,92990,.49303E-4,.61E-6,0
HUANJING 1A (HJ-1A),2008-041A,2026-05-09T12:41:52.895616,14.83903061,.001732,97.6678,116.8691,265.7828,94.1407,0,U,33320,999,95267,.17849E-3,.1434E-4,0
HUANJING 1B (HJ-1B),2008-041B,2026-05-09T13:09:48.055968,14.83252914,.0035271,97.6518,120.1749,312.4098,47.4134,0,U,33321,999,95268,.14451E-3,.1141E-4,0
SHIJIAN-6 03A (SJ-6 03A),2008-053A,2026-05-09T12:38:03.964128,15.16784005,.0012558,97.8441,161.5101,139.1583,221.0592,0,U,33408,999,95710,.32503E-3,.6324E-4,0
SHIJIAN-6 03B (SJ-6 03B),2008-053B,2026-05-09T12:26:21.172704,15.04204710,.001958,97.8608,148.7692,166.9343,193.2394,0,U,33409,999,95693,.11264E-3,.1505E-4,0
CHUANGXIN 1-02 (CX-1-02),2008-056B,2026-05-09T12:54:55.603584,14.30146258,.0013033,98.6163,156.1859,253.0237,106.9517,0,U,33434,999,91309,.15328E-3,.353E-5,0
