SAUDISAT 2              
1 28371U 04025F   26129.49401735  .00000210  00000+0  57836-4 0  9990
2 28371  98.5511 128.4776 0025773  57.2478 303.1198 14.56659974160114
COSMOS 2407             
1 28380U 04028A   26129.47544920  .00000071  00000+0  57212-4 0  9998
2 28380  82.9577 103.5049 0039354   2.8730 117.8566 13.76331363 94550
COSMOS 2414             
1 28521U 05002A   26129.31931248  .00000090  00000+0  61661-4 0  9998
2 28521  82.9493  73.0435 0041597  80.4599 280.1261 13.87922439 78427
INMARSAT 4-F1           
1 28628U 05009A   26129.30892897  .00000042  00000+0  00000+0 0  9990
2 28628   5.1164  42.6777 0002975   8.0519 105.7481  1.00272059 77280
SJ-7                    
1 28737U 05024A   26129.34717536  .00006274  00000+0  28562-3 0  9998
2 28737  97.7319 158.4198 0016622 161.7756 198.4078 15.20955618142120
CUBESAT XI-V            
1 28895U 05043F   26129.39995157  .00001059  00000+0  17481-3 0  9990
2 28895  98.2943 284.2197 0013359 333.2629  26.7887 14.72529384 96043
HINODE (SOLAR-B)        
1 29479U 06041A   26129.48573118  .00000522  00000+0  98075-4 0  9990
2 29479  98.0568 146.2076 0018637  54.1377 306.1556 14.68566786 49193
SHIJIAN-6 02B (SJ-6 02B)
1 29506U 06046B   26129.55623730  .00001649  00000+0  13285-3 0  9990
2 29506  97.7152 158.8553 0011271 187.5232 172.5825 15.01265904 64946
DMSP 5D-3 F17 (USA 191) 
1 29522U 06050A   26129.49048301  .00000063  00000+0  54990-4 0  9999
2 29522  98.7389 136.8515 0010419 160.0335 200.1248 14.14986207  6957
LAPAN-TUBSAT            
1 29709U 07001A   26129.53446081  .00000330  00000+0  44482-4 0  9997
2 29709  98.1348 127.8898 0011282 317.2482  42.7854 14.85910507 45410
HAIYANG-1B              
1 31113U 07010A   26129.47884010  .00000072  00000+0  43241-4 0  9995
2 31113  98.3482 112.8291 0012686 320.7331  39.2932 14.31017307995098
COSMO-SKYMED 2          
1 32376U 07059A   26129.47751806  .00000332  00000+0  48225-4 0  9992
2 32376  97.8887 313.6370 0001463  89.5864 270.5517 14.82153937996269
CARTOSAT-2A             
1 32783U 08021A   26129.55646933  .00000499  00000+0  73918-4 0  9998
2 32783  97.7660 179.5790 0010491 233.4058 126.6189 14.79185426973096
CUTE-1.7+APD II (CO-65) 
1 32785U 08021C   26129.46358632  .00003511  00000+0  22557-3 0  9996
2 32785  97.8266 110.0941 0009832 150.1468 210.0322 15.09087619979357
SEEDS II (CO-66)        
1 32791U 08021J   26129.53490015  .00013075  00000+0  43294-3 0  9990
2 32791  97.7532 125.6314 0005092  91.1474 269.0349 15.31438560981378
YUBILEINY (RS30)        
1 32953U 08025A   26129.46899031  .00000051  00000+0  29696-3 0  9997
2 32953  82.5069  19.5238 0020429  37.7694 322.4816 12.43178136814886
FENGYUN 3A              
1 32958U 08026A   26129.42220229  .00000061  00000+0  49303-4 0  9995
2 32958  98.6867  70.9850 0007704 236.0884 123.9560 14.19562918929902
HUANJING 1A (HJ-1A)     
1 33320U 08041A   26129.52908444  .00001434  00000+0  17849-3 0  9993
2 33320  97.6678 116.8691 0017320 265.7828  94.1407 14.83903061952678
HUANJING 1B (HJ-1B)     
1 33321U 08041B   26129.54847287  .00001141  00000+0  14451-3 0  9994
2 33321  97.6518 120.1749 0035271 312.4098  47.4134 14.83252914952681
SHIJIAN-6 03A (SJ-6 03A)
1 33408U 08053A   26129.52643477  .00006324  00000+0  32503-3 0  9992
2 33408  97.8441 161.5101 0012558 139.1583 221.0592 15.16784005957109
SHIJIAN-6 03B (SJ-6 03B)
1 33409U 08053B   26129.51830061  .00001505  00000+0  11264-3 0  9996
2 33409  97.8608 148.7692 0019580 166.9343 193.2394 15.04204710956938
CHUANGXIN 1-02 (CX-1-02)
1 33434U 08056B   26129.53814356  .00000353  00000+0  15328-3 0  9993
2 33434  98.6163 156.1859 0013033 253.0237 106.9517 14.30146258913094
